NORAD_CAT_ID,OBJECT_NAME,OBJECT_TYPE,EPOCH,MEAN_MOTION,ECCENTRICITY,INCLINATION,RA_OF_ASC_NODE,ARG_OF_PERICENTER,MEAN_ANOMALY,BSTAR,MEAN_MOTION_DOT,MEAN_MOTION_DDOT,TLE_LINE0,TLE_LINE1,TLE_LINE2,SEMIMAJOR_AXIS,PERIOD,APOGEE,PERIGEE,DECAYED
53830.0,STARLINK-4761,PAYLOAD,2023-05-04 18:51:12,15.08850571,9.38e-05,53.2147,292.2599,83.8023,276.3075,0.00038419,5.834e-05,0.0,0 STARLINK-4761,1 53830U 22114N   23124.78555955  .00005834  00000-0  38419-3 0  9998,2 53830  53.2147 292.2599 0000938  83.8023 276.3075 15.08850571 35845,6917.848,95.437,540.362,539.064,0.0
53830.0,STARLINK-4761,PAYLOAD,2023-05-05 04:23:31,15.08846656,9.4e-05,53.2141,290.4764,77.5887,282.521,0.00027805,4.141e-05,0.0,0 STARLINK-4761,1 53830U 22114N   23125.18300019  .00004141  00000-0  27805-3 0  9999,2 53830  53.2141 290.4764 0000940  77.5887 282.5210 15.08846656 35360,6917.86,95.437,540.375,539.075,0.0
53830.0,STARLINK-4761,PAYLOAD,2023-05-05 15:31:13,15.08840554,8.9e-05,53.2145,288.3939,87.6651,272.4443,0.00012512,1.704e-05,0.0,0 STARLINK-4761,1 53830U 22114N   23125.64668235  .00001704  00000-0  12512-3 0  9998,2 53830  53.2145 288.3939 0000890  87.6651 272.4443 15.08840554 35434,6917.879,95.438,540.359,539.128,0.0
53830.0,STARLINK-4761,PAYLOAD,2023-05-05 17:06:36,15.08841213,8.96e-05,53.2145,288.0964,88.5217,271.5878,0.00013012,1.784e-05,0.0,0 STARLINK-4761,1 53830U 22114N   23125.71292203  .00001784  00000-0  13012-3 0  9998,2 53830  53.2145 288.0964 0000896  88.5217 271.5878 15.08841213 35988,6917.877,95.437,540.362,539.122,0.0
53830.0,STARLINK-4761,PAYLOAD,2023-05-06 13:46:37,15.08843501,9.6e-05,53.2148,284.231,88.5704,271.5398,8.065e-05,9.96e-06,0.0,0 STARLINK-4761,1 53830U 22114N   23126.57404203  .00000996  00000-0  80650-4 0  9995,2 53830  53.2148 284.2310 0000960  88.5704 271.5398 15.08843501 36112,6917.87,95.437,540.399,539.071,0.0
53830.0,STARLINK-4761,PAYLOAD,2023-05-06 16:57:23,15.08851038,0.0001085,53.2156,283.6346,103.3171,256.7942,0.0001402,1.945e-05,0.0,0 STARLINK-4761,1 53830U 22114N   23126.70651746  .00001945  00000-0  14020-3 0  9998,2 53830  53.2156 283.6346 0001085 103.3171 256.7942 15.08851038 35591,6917.847,95.437,540.462,538.961,0.0
53830.0,STARLINK-4761,PAYLOAD,2023-05-07 13:37:24,15.08836894,0.0001052,53.2146,279.77,96.8082,263.303,8.8251e-05,1.117e-05,0.0,0 STARLINK-4761,1 53830U 22114N   23127.56764664  .00001117  00000-0  88251-4 0  9996,2 53830  53.2146 279.7700 0001052  96.8082 263.3030 15.08836894 36261,6917.89,95.438,540.483,539.027,0.0
53830.0,STARLINK-4761,PAYLOAD,2023-05-07 16:48:10,15.08839506,8.83e-05,53.2158,279.1742,101.4458,258.6633,4.9171e-05,4.95e-06,0.0,0 STARLINK-4761,1 53830U 22114N   23127.70012531  .00000495  00000-0  49171-4 0  9997,2 53830  53.2158 279.1742 0000883 101.4458 258.6633 15.08839506 35746,6917.882,95.438,540.358,539.136,0.0
53830.0,STARLINK-4761,PAYLOAD,2023-05-08 16:38:57,15.08850108,8.48e-05,53.2151,274.715,98.2305,261.8783,0.00021263,3.099e-05,0.0,0 STARLINK-4761,1 53830U 22114N   23128.69372144  .00003099  00000-0  21263-3 0  9999,2 53830  53.2151 274.7150 0000848  98.2305 261.8783 15.08850108 36438,6917.849,95.437,540.301,539.128,0.0
53830.0,STARLINK-4761,PAYLOAD,2023-05-09 13:18:58,15.08838878,8.79e-05,53.2155,270.849,95.7944,264.3149,0.00010845,1.439e-05,0.0,0 STARLINK-4761,1 53830U 22114N   23129.55484819  .00001439  00000-0  10845-3 0  9998,2 53830  53.2155 270.8490 0000879  95.7944 264.3149 15.08838878 36569,6917.884,95.438,540.357,539.141,0.0
53830.0,STARLINK-4761,PAYLOAD,2023-05-10 13:09:45,15.08842511,7.76e-05,53.2147,266.3907,100.3093,259.7986,-5.4799e-05,-1.16e-05,0.0,0 STARLINK-4761,1 53830U 22114N   23130.54844782 -.00001160  00000-0 -54799-4 0  9998,2 53830  53.2147 266.3907 0000776 100.3093 259.7986 15.08842511 36710,6917.873,95.437,540.275,539.201,0.0
53830.0,STARLINK-4761,PAYLOAD,2023-05-10 16:20:31,15.08845447,9.09e-05,53.2142,265.7973,119.4423,240.666,2.8257e-05,1.62e-06,0.0,0 STARLINK-4761,1 53830U 22114N   23130.68092577  .00000162  00000-0  28257-4 0  9999,2 53830  53.2142 265.7973 0000909 119.4423 240.6660 15.08845447 36198,6917.864,95.437,540.358,539.1,0.0
53830.0,STARLINK-4761,PAYLOAD,2023-05-11 01:52:50,15.08844046,8.39e-05,53.215,264.0112,94.3507,265.7581,8.2683e-05,1.029e-05,0.0,0 STARLINK-4761,1 53830U 22114N   23131.07836496  .00001029  00000-0  82683-4 0  9995,2 53830  53.2150 264.0112 0000839  94.3507 265.7581 15.08844046 36790,6917.868,95.437,540.313,539.153,0.0
53830.0,STARLINK-4761,PAYLOAD,2023-05-11 16:11:19,15.0884387,0.0001025,53.2163,261.3351,82.5205,277.5903,0.000114,1.527e-05,0.0,0 STARLINK-4761,1 53830U 22114N   23131.67452841  .00001527  00000-0  11400-3 0  9990,2 53830  53.2163 261.3351 0001025  82.5205 277.5903 15.08843870 36345,6917.869,95.437,540.443,539.024,0.0
53830.0,STARLINK-4761,PAYLOAD,2023-05-12 01:43:38,15.0883966,0.0001079,53.2163,259.5519,87.7891,272.3225,0.00010474,1.38e-05,0.0,0 STARLINK-4761,1 53830U 22114N   23132.07197151  .00001380  00000-0  10474-3 0  9992,2 53830  53.2163 259.5519 0001079  87.7891 272.3225 15.08839660 36945,6917.881,95.438,540.493,539.0,0.0
53830.0,STARLINK-4761,PAYLOAD,2023-05-12 16:02:06,15.08842803,9.68e-05,53.2161,256.8737,85.5137,274.5966,1.3618e-05,-7.1e-07,0.0,0 STARLINK-4761,1 53830U 22114N   23132.66813188 -.00000071  00000-0  13618-4 0  9993,2 53830  53.2161 256.8737 0000968  85.5137 274.5966 15.08842803 36499,6917.872,95.437,540.406,539.067,0.0
53830.0,STARLINK-4761,PAYLOAD,2023-05-13 12:42:06,15.0884348,9.1e-05,53.2169,253.0037,87.3134,272.7962,0.00011747,1.582e-05,0.0,0 STARLINK-4761,1 53830U 22114N   23133.52924659  .00001582  00000-0  11747-3 0  9992,2 53830  53.2169 253.0037 0000910  87.3134 272.7962 15.08843480 37166,6917.87,95.437,540.364,539.105,0.0
53830.0,STARLINK-4761,PAYLOAD,2023-05-13 15:52:53,15.0883969,0.0001082,53.2168,252.4092,101.5436,258.5678,0.00023629,3.475e-05,0.0,0 STARLINK-4761,1 53830U 22114N   23133.66172552  .00003475  00000-0  23629-3 0  9999,2 53830  53.2168 252.4092 0001082 101.5436 258.5678 15.08839690 37180,6917.881,95.438,540.495,538.998,0.0
53830.0,STARLINK-4761,PAYLOAD,2023-05-14 01:25:12,15.08846636,0.0001123,53.2168,250.6294,79.1271,280.9848,1.4137e-05,-6.3e-07,0.0,0 STARLINK-4761,1 53830U 22114N   23134.05916671 -.00000063  00000-0  14137-4 0  9997,2 53830  53.2168 250.6294 0001123  79.1271 280.9848 15.08846636 36700,6917.86,95.437,540.502,538.948,0.0
53830.0,STARLINK-4761,PAYLOAD,2023-05-14 14:08:17,15.0884022,0.0001274,53.2175,248.2487,91.6365,268.4773,3.5768e-05,2.81e-06,0.0,0 STARLINK-4761,1 53830U 22114N   23134.58909212  .00000281  00000-0  35768-4 0  9992,2 53830  53.2175 248.2487 0001274  91.6365 268.4773 15.08840220 36784,6917.88,95.438,540.626,538.863,0.0
53830.0,STARLINK-4761,PAYLOAD,2023-05-14 17:19:03,15.08842906,0.0001322,53.2168,247.6567,79.2613,280.8528,5.6021e-05,6.04e-06,0.0,0 STARLINK-4761,1 53830U 22114N   23134.72157040  .00000604  00000-0  56021-4 0  9996,2 53830  53.2168 247.6567 0001322  79.2613 280.8528 15.08842906 37342,6917.872,95.437,540.651,538.822,0.0
53830.0,STARLINK-4761,PAYLOAD,2023-05-15 12:23:41,15.08835147,0.0001203,53.2158,244.0881,74.9825,285.13,-3.8377e-06,-3.49e-06,0.0,0 STARLINK-4761,1 53830U 22114N   23135.51645764 -.00000349  00000-0 -38377-5 0  9992,2 53830  53.2158 244.0881 0001203  74.9825 285.1300 15.08835147 37464,6917.895,95.438,540.592,538.928,0.0
53830.0,STARLINK-4761,PAYLOAD,2023-05-15 13:59:04,15.08840085,0.0001144,53.2167,243.7879,95.4345,264.6778,5.8491e-05,6.43e-06,0.0,0 STARLINK-4761,1 53830U 22114N   23135.58269123  .00000643  00000-0  58491-4 0  9993,2 53830  53.2167 243.7879 0001144  95.4345 264.6778 15.08840085 37475,6917.88,95.438,540.537,538.954,0.0
53830.0,STARLINK-4761,PAYLOAD,2023-05-16 07:28:19,15.08830928,0.0001094,53.2161,240.5185,88.7551,271.3567,5.114e-05,5.26e-06,0.0,0 STARLINK-4761,1 53830U 22114N   23136.31133953  .00000526  00000-0  51140-4 0  9990,2 53830  53.2161 240.5185 0001094  88.7551 271.3567 15.08830928 37041,6917.908,95.438,540.53,539.016,0.0
53830.0,STARLINK-4761,PAYLOAD,2023-05-16 12:14:29,15.08831151,8.93e-05,53.2159,239.6266,85.2668,274.8426,0.00010947,1.455e-05,0.0,0 STARLINK-4761,1 53830U 22114N   23136.51005819  .00001455  00000-0  10947-3 0  9992,2 53830  53.2159 239.6266 0000893  85.2668 274.8426 15.08831151 37618,6917.907,95.438,540.39,539.155,0.0
53830.0,STARLINK-4761,PAYLOAD,2023-05-16 23:22:10,15.08843971,9.76e-05,53.216,237.5445,79.4708,280.6394,5.0444e-05,5.15e-06,0.0,0 STARLINK-4761,1 53830U 22114N   23136.97373133  .00000515  00000-0  50444-4 0  9992,2 53830  53.2160 237.5445 0000976  79.4708 280.6394 15.08843971 37148,6917.868,95.437,540.408,539.058,0.0
53830.0,STARLINK-4761,PAYLOAD,2023-05-17 10:29:52,15.0883726,0.0001009,53.2159,235.463,92.2682,267.8425,2.1492e-05,5.4e-07,0.0,0 STARLINK-4761,1 53830U 22114N   23137.43741768  .00000054  00000-0  21492-4 0  9996,2 53830  53.2159 235.4630 0001009  92.2682 267.8425 15.08837260 37215,6917.889,95.438,540.452,539.056,0.0
53830.0,STARLINK-4761,PAYLOAD,2023-05-17 15:16:02,15.08841722,0.0001125,53.2165,234.5701,85.1708,274.9413,4.0262e-05,3.53e-06,0.0,0 STARLINK-4761,1 53830U 22114N   23137.63613437  .00000353  00000-0  40262-4 0  9997,2 53830  53.2165 234.5701 0001125  85.1708 274.9413 15.08841722 37786,6917.875,95.437,540.518,538.962,0.0
53830.0,STARLINK-4761,PAYLOAD,2023-05-18 11:56:03,15.08832692,0.0001334,53.2166,230.7033,107.3719,252.7419,8.3539e-06,-1.55e-06,0.0,0 STARLINK-4761,1 53830U 22114N   23138.49726380 -.00000155  00000-0  83539-5 0  9990,2 53830  53.2166 230.7033 0001334 107.3719 252.7419 15.08832692 37375,6917.903,95.438,540.691,538.845,0.0
53830.0,STARLINK-4761,PAYLOAD,2023-05-18 18:17:35,15.08838767,0.0001064,53.2163,229.5149,96.569,263.5423,3.9782e-05,3.45e-06,0.0,0 STARLINK-4761,1 53830U 22114N   23138.76221973  .00000345  00000-0  39782-4 0  9998,2 53830  53.2163 229.5149 0001064  96.5690 263.5423 15.08838767 37951,6917.884,95.438,540.485,539.013,0.0
